OBJECT_NAME,OBJECT_ID,EPOCH,MEAN_MOTION,ECCENTRICITY,INCLINATION,RA_OF_ASC_NODE,ARG_OF_PERICENTER,MEAN_ANOMALY,EPHEMERIS_TYPE,CLASSIFICATION_TYPE,NORAD_CAT_ID,ELEMENT_SET_NO,REV_AT_EPOCH,BSTAR,MEAN_MOTION_DOT,MEAN_MOTION_DDOT
STARLINK-36813,2026-035P,2026-06-07T19:20:21.813792,15.33400942,.00017344,97.2840,92.2185,78.4587,281.6850,0,U,67892,999,1780,.89144884E-3,.28775E-3,0
STARLINK-36803,2026-035Q,2026-06-07T19:32:08.107008,15.33457586,.00010755,97.2833,92.2044,116.1692,243.9662,0,U,67893,999,1780,.14485423E-2,.47E-3,0
STARLINK-36846,2026-035R,2026-06-07T19:00:47.414016,15.33403493,.00017338,97.2843,92.0827,109.0379,251.1052,0,U,67894,999,1779,.70726966E-3,.22798E-3,0
STARLINK-36866,2026-035S,2026-06-08T07:16:52.579776,15.33437000,.00016471,97.2839,92.6128,71.6971,288.4451,0,U,67895,999,1787,.90333442E-3,.29194E-3,0
STARLINK-36877,2026-035T,2026-06-07T18:05:58.206624,15.33408627,.00018613,97.2840,92.1358,117.3102,242.8331,0,U,67896,999,1779,.88152629E-3,.28459E-3,0
STARLINK-36870,2026-035U,2026-06-07T18:13:48.224352,15.33411395,.00017244,97.2836,92.1303,73.0868,287.0564,0,U,67897,999,1779,.82489897E-3,.26622E-3,0
STARLINK-36810,2026-035V,2026-06-08T02:19:18.752448,15.33434009,.00016479,97.2839,92.4351,79.8071,280.3358,0,U,67898,999,1784,.10901023E-2,.3527E-3,0
STARLINK-36878,2026-035W,2026-06-07T19:24:16.830432,15.33401928,.00018229,97.2835,92.2113,80.2502,279.8946,0,U,67899,999,1780,.95139394E-3,.30724E-3,0
STARLINK-36361,2026-035X,2026-06-07T19:28:11.585280,15.33407891,.00014368,97.2842,92.2093,115.8446,244.2945,0,U,67900,999,1780,.74990421E-3,.24184E-3,0
STARLINK-36336,2026-035Y,2026-06-07T18:17:42.910080,15.33424396,.00018083,97.2841,92.1239,76.8344,283.3100,0,U,67901,999,1779,.57201122E-3,.18425E-3,0
STARLINK-36876,2026-035Z,2026-06-07T18:02:02.215392,15.33449595,.00014781,97.2823,92.1373,84.6401,275.5010,0,U,67902,999,1779,.16857477E-2,.54751E-3,0
STARLINK-36257,2026-035AA,2026-06-08T05:46:49.440000,15.33430137,.00015784,97.2841,92.5448,73.7139,286.4277,0,U,67903,999,1786,.90614917E-3,.29279E-3,0
STARLINK-36814,2026-036A,2026-06-08T02:16:00.301152,15.27588404,.00034684,43.0009,95.1384,275.8101,84.2356,0,U,67904,999,1754,.90532043E-3,.24743E-3,0
STARLINK-36729,2026-036B,2026-06-08T06:00:04.000320,15.27546137,.0001501,43.0018,94.2111,273.4851,237.4331,0,U,67905,999,586,.24996608E-2,.69098E-3,0
STARLINK-36763,2026-036C,2026-06-07T07:16:51.464352,15.27592915,.00023851,43.0058,99.5031,269.7474,90.3104,0,U,67906,999,1742,.69361577E-3,.18881E-3,0
STARLINK-36742,2026-036D,2026-06-07T18:10:24.478464,15.27583761,.00015789,43.0001,96.8839,234.4095,125.6610,0,U,67907,999,1749,.69465284E-3,.18905E-3,0
STARLINK-36827,2026-036E,2026-06-07T13:22:22.659744,15.27591465,.00028188,43.0035,97.9594,265.7343,94.3187,0,U,67908,999,1746,.85903973E-3,.23462E-3,0
STARLINK-36822,2026-036F,2026-06-07T13:16:50.091456,15.27611225,.00017978,43.0025,97.9364,264.5712,95.4934,0,U,67909,999,1746,.67708956E-3,.18434E-3,0
STARLINK-36847,2026-036G,2026-06-07T13:11:17.261376,15.27581198,.0001877,42.9999,97.9066,263.2453,96.8185,0,U,67910,999,1746,.80643925E-3,.21997E-3,0
STARLINK-36736,2026-036H,2026-06-07T13:01:59.903616,15.27602891,.0002615,43.0041,97.8423,259.5504,100.5053,0,U,67911,999,1746,.19566141E-3,.5129E-4,0
STARLINK-36676,2026-036J,2026-06-07T12:56:28.559616,15.27593742,.00018529,43.0036,97.8173,270.1873,89.8767,0,U,67912,999,1746,.11108948E-2,.30447E-3,0
STARLINK-36690,2026-036K,2026-06-08T02:58:20.257248,15.27575060,.00004334,43.0025,94.4605,289.5668,70.5136,0,U,67913,999,1755,.76258256E-3,.20778E-3,0
STARLINK-36724,2026-036L,2026-06-08T02:43:32.335680,15.27589934,.00005849,43.0105,94.3867,262.3001,97.7784,0,U,67914,999,1755,.81677553E-3,.22288E-3,0
STARLINK-36723,2026-036M,2026-06-07T12:45:22.518432,15.27549698,.00014933,43.0013,97.7508,268.3462,91.7218,0,U,67915,999,1746,.79765531E-3,.21732E-3,0
STARLINK-36721,2026-036N,2026-06-08T02:37:59.234304,15.27597611,.00004014,43.0078,94.3542,191.0590,169.0253,0,U,67916,999,1755,.11570238E-2,.3173E-3,0
STARLINK-36722,2026-036P,2026-06-08T02:32:25.929024,15.27586530,.00047795,42.9891,94.3108,279.6984,80.3328,0,U,67917,999,1755,.74522455E-3,.2031E-3,0
STARLINK-36341,2026-036Q,2026-06-08T02:17:50.999424,15.27588542,.0002909,43.0002,95.1359,277.8751,82.1770,0,U,67918,999,1754,.10081781E-2,.27594E-3,0
STARLINK-36663,2026-036R,2026-06-08T02:26:53.047104,15.27610015,.00010092,43.0093,94.2953,139.0393,221.0535,0,U,67919,999,1755,.72945627E-3,.19883E-3,0
STARLINK-36375,2026-036S,2026-06-07T02:36:14.285088,15.27619112,.0003511,43.0070,100.6145,277.0808,82.9644,0,U,67920,999,1739,.7442E-3,.20299E-3,0
STARLINK-36405,2026-036T,2026-06-07T13:29:46.638240,15.27601968,.00038032,43.0037,98.0097,272.5744,87.4672,0,U,67921,999,1746,.59846718E-3,.16256E-3,0
