STARLINK-36813          
1 67892U 26035P   26158.80580803  .00028775  00000+0  89145-3 0  9990
2 67892  97.2840  92.2185 0001734  78.4587 281.6850 15.33400942 17802
STARLINK-36803          
1 67893U 26035Q   26158.81398272  .00047000  00000+0  14485-2 0  9995
2 67893  97.2833  92.2044 0001075 116.1692 243.9662 15.33457586 17802
STARLINK-36846          
1 67894U 26035R   26158.79221544  .00022798  00000+0  70727-3 0  9999
2 67894  97.2843  92.0827 0001733 109.0379 251.1052 15.33403493 17795
STARLINK-36866          
1 67895U 26035S   26159.30338634  .00029194  00000+0  90333-3 0  9999
2 67895  97.2839  92.6128 0001647  71.6971 288.4451 15.33437000 17873
STARLINK-36877          
1 67896U 26035T   26158.75414591  .00028459  00000+0  88153-3 0  9995
2 67896  97.2840  92.1358 0001861 117.3102 242.8331 15.33408627 17793
STARLINK-36870          
1 67897U 26035U   26158.75958593  .00026622  00000+0  82490-3 0  9999
2 67897  97.2836  92.1303 0001724  73.0868 287.0564 15.33411395 17799
STARLINK-36810          
1 67898U 26035V   26159.09674482  .00035270  00000+0  10901-2 0  9996
2 67898  97.2839  92.4351 0001647  79.8071 280.3358 15.33434009 17843
STARLINK-36878          
1 67899U 26035W   26158.80852813  .00030724  00000+0  95139-3 0  9997
2 67899  97.2835  92.2113 0001822  80.2502 279.8946 15.33401928 17800
STARLINK-36361          
1 67900U 26035X   26158.81124520  .00024184  00000+0  74990-3 0  9993
2 67900  97.2842  92.2093 0001436 115.8446 244.2945 15.33407891 17801
STARLINK-36336          
1 67901U 26035Y   26158.76230220  .00018425  00000+0  57201-3 0  9990
2 67901  97.2841  92.1239 0001808  76.8344 283.3100 15.33424396 17792
STARLINK-36876          
1 67902U 26035Z   26158.75141453  .00054751  00000+0  16857-2 0  9992
2 67902  97.2823  92.1373 0001478  84.6401 275.5010 15.33449595 17797
STARLINK-36257          
1 67903U 26035AA  26159.24085000  .00029279  00000+0  90615-3 0  9995
2 67903  97.2841  92.5448 0001578  73.7139 286.4277 15.33430137 17869
STARLINK-36814          
1 67904U 26036A   26159.09444793  .00024743  00000+0  90532-3 0  9997
2 67904  43.0009  95.1384 0003468 275.8101  84.2356 15.27588404 17548
STARLINK-36729          
1 67905U 26036B   26159.25004630  .00069098  00000+0  24997-2 0  9991
2 67905  43.0018  94.2111 0001501 273.4851 237.4331 15.27546137  5863
STARLINK-36763          
1 67906U 26036C   26158.30337343  .00018881  00000+0  69362-3 0  9997
2 67906  43.0058  99.5031 0002385 269.7474  90.3104 15.27592915 17421
STARLINK-36742          
1 67907U 26036D   26158.75722776  .00018905  00000+0  69465-3 0  9996
2 67907  43.0001  96.8839 0001578 234.4095 125.6610 15.27583761 17497
STARLINK-36827          
1 67908U 26036E   26158.55720671  .00023462  00000+0  85904-3 0  9997
2 67908  43.0035  97.9594 0002818 265.7343  94.3187 15.27591465 17464
STARLINK-36822          
1 67909U 26036F   26158.55335754  .00018434  00000+0  67709-3 0  9998
2 67909  43.0025  97.9364 0001797 264.5712  95.4934 15.27611225 17460
STARLINK-36847          
1 67910U 26036G   26158.54950534  .00021997  00000+0  80644-3 0  9999
2 67910  42.9999  97.9066 0001877 263.2453  96.8185 15.27581198 17464
STARLINK-36736          
1 67911U 26036H   26158.54305444  .00005129  00000+0  19566-3 0  9998
2 67911  43.0041  97.8423 0002615 259.5504 100.5053 15.27602891 17468
STARLINK-36676          
1 67912U 26036J   26158.53921944  .00030447  00000+0  11109-2 0  9992
2 67912  43.0036  97.8173 0001852 270.1873  89.8767 15.27593742 17460
STARLINK-36690          
1 67913U 26036K   26159.12384557  .00020778  00000+0  76258-3 0  9995
2 67913  43.0025  94.4605 0000433 289.5668  70.5136 15.27575060 17552
STARLINK-36724          
1 67914U 26036L   26159.11356870  .00022288  00000+0  81678-3 0  9992
2 67914  43.0105  94.3867 0000584 262.3001  97.7784 15.27589934 17553
STARLINK-36723          
1 67915U 26036M   26158.53151063  .00021732  00000+0  79766-3 0  9993
2 67915  43.0013  97.7508 0001493 268.3462  91.7218 15.27549698 17467
STARLINK-36721          
1 67916U 26036N   26159.10971336  .00031730  00000+0  11570-2 0  9998
2 67916  43.0078  94.3542 0000401 191.0590 169.0253 15.27597611 17558
STARLINK-36722          
1 67917U 26036P   26159.10585566  .00020310  00000+0  74522-3 0  9994
2 67917  42.9891  94.3108 0004779 279.6984  80.3328 15.27586530 17556
STARLINK-36341          
1 67918U 26036Q   26159.09572916  .00027594  00000+0  10082-2 0  9999
2 67918  43.0002  95.1359 0002909 277.8751  82.1770 15.27588542 17540
STARLINK-36663          
1 67919U 26036R   26159.10200286  .00019883  00000+0  72946-3 0  9990
2 67919  43.0093  94.2953 0001009 139.0393 221.0535 15.27610015 17557
STARLINK-36375          
1 67920U 26036S   26158.10849867  .00020299  00000+0  74420-3 0  9997
2 67920  43.0070 100.6145 0003511 277.0808  82.9644 15.27619112 17397
STARLINK-36405          
1 67921U 26036T   26158.56234535  .00016256  00000+0  59847-3 0  9992
2 67921  43.0037  98.0097 0003803 272.5744  87.4672 15.27601968 17469
